{
    "links": {
        "self": "http://www.neowsapp.com/rest/v1/neo/3748488?api_key=iIulBulltgU6a56xZRHN4H3l9WmuAYTsLGpBGhQ2"
    },
    "id": "3748488",
    "neo_reference_id": "3748488",
    "name": "(2016 FC14)",
    "designation": "2016 FC14",
    "nasa_jpl_url": "http://ssd.jpl.nasa.gov/sbdb.cgi?sstr=3748488",
    "absolute_magnitude_h": 25.4,
    "estimated_diameter": {
        "kilometers": {
            "estimated_diameter_min": 0.022108281,
            "estimated_diameter_max": 0.0494356193
        },
        "meters": {
            "estimated_diameter_min": 22.1082810359,
            "estimated_diameter_max": 49.435619262
        },
        "miles": {
            "estimated_diameter_min": 0.0137374447,
            "estimated_diameter_max": 0.0307178602
        },
        "feet": {
            "estimated_diameter_min": 72.5337327539,
            "estimated_diameter_max": 162.1903570994
        }
    },
    "is_potentially_hazardous_asteroid": false,
    "close_approach_data": [
        {
            "close_approach_date": "2016-03-10",
            "close_approach_date_full": "2016-Mar-10 06:03",
            "epoch_date_close_approach": 1457589780000,
            "relative_velocity": {
                "kilometers_per_second": "15.9223905015",
                "kilometers_per_hour": "57320.605805234",
                "miles_per_hour": "35616.7953127022"
            },
            "miss_distance": {
                "astronomical": "0.0666179281",
                "lunar": "25.9143740309",
                "kilometers": "9965900.147573147",
                "miles": "6192523.2005855486"
            },
            "orbiting_body": "Earth"
        },
        {
            "close_approach_date": "2093-03-28",
            "close_approach_date_full": "2093-Mar-28 22:52",
            "epoch_date_close_approach": 3889119120000,
            "relative_velocity": {
                "kilometers_per_second": "24.3031979095",
                "kilometers_per_hour": "87491.5124742194",
                "miles_per_hour": "54363.8234037726"
            },
            "miss_distance": {
                "astronomical": "0.2995430263",
                "lunar": "116.5222372307",
                "kilometers": "44810998.707833981",
                "miles": "27844263.4413956978"
            },
            "orbiting_body": "Earth"
        }
    ],
    "orbital_data": {
        "orbit_id": "4",
        "orbit_determination_date": "2017-04-06 08:27:04",
        "first_observation_date": "2016-03-30",
        "last_observation_date": "2016-04-07",
        "data_arc_in_days": 8,
        "observations_used": 14,
        "orbit_uncertainty": "9",
        "minimum_orbit_intersection": ".0316116",
        "jupiter_tisserand_invariant": "3.314",
        "epoch_osculation": "2457483.5",
        "eccentricity": ".65916720764157",
        "semi_major_axis": "2.232207530892745",
        "inclination": "3.959230553053172",
        "ascending_node_longitude": "246.0024136220979",
        "orbital_period": "1218.148627907248",
        "perihelion_distance": ".7608095258776906",
        "perihelion_argument": "218.1055066855968",
        "aphelion_distance": "3.703605535907799",
        "perihelion_time": "2457416.223521971641",
        "mean_anomaly": "19.88224715387797",
        "mean_motion": ".2955304400075317",
        "equinox": "J2000",
        "orbit_class": {
            "orbit_class_type": "APO",
            "orbit_class_description": "Near-Earth asteroid orbits which cross the Earth’s orbit similar to that of 1862 Apollo",
            "orbit_class_range": "a (semi-major axis) > 1.0 AU; q (perihelion) < 1.017 AU"
        }
    },
    "is_sentry_object": false
}